C/2014 M3 (Catalina),e,164.9005,80.3550,93.5991,123.8061,0.0007155,0.98033746,0.0000,06/19.6610/2014,2000,g 14.0,4.0
# From MPC 91614
P/2014 M4 (PANSTARRS),e,3.3344,263.2880,148.0330,5.880732,0.0691126,0.59325203,107.4672,03/29.0/2019,2000,g 15.0,4.0
# From MPC103844
P/2014 MG4 (Spacewatch-PANSTARRS),e,9.3680,311.7552,298.9666,5.011459,0.0878532,0.26019996,185.5077,03/29.0/2019,2000,g  9.5,4.0
# From MPC 93586
C/2014 N2 (PANSTARRS),e,132.9592,143.8849,238.0997,2855,0.0000065,0.99923120,0.0000,10/07.4168/2014,2000,g 14.5,4.0
# From MPC103844
C/2014 N3 (NEOWISE),e,61.6475,19.8963,353.4112,1622,0.0000151,0.99761149,0.0000,03/12.5084/2015,2000,g  7.0,4.0
# From MPC 98560
P/2014 O3 (PANSTARRS),e,7.8094,87.6388,204.3968,7.553499,0.0474768,0.38634427,85.7005,03/29.0/2019,2000,g 10.5,4.0
# From MPC112389
C/2014 OE4 (PANSTARRS),h,12/11.7952/2016,81.3472,240.3890,65.8199,1.001573,6.246074,2000,11.0,2.0
# From MPC100578
C/2014 Q1 (PANSTARRS),e,43.0901,8.8878,120.0610,1056,0.0000287,0.99969910,0.0000,07/05.8109/2015,2000,g  8.0,4.0
# From MPC111767
C/2014 Q2 (Lovejoy),e,80.2013,95.0405,12.3831,452.7023,0.0001023,0.99714500,0.0000,01/28.9646/2015,2000,g  2.7,10.0
# From MPC 90770
C/2014 QU2 (PANSTARRS),e,124.8147,332.8870,320.2514,218.2193,0.0003057,0.98983397,0.0000,07/08.9249/2014,2000,g 15.0,4.0
# From MPC102952
C/2014 Q3 (Borisov),e,89.8671,63.1373,47.3284,27.89090,0.0066913,0.94087821,10.6573,03/29.0/2019,2000,g -0.5,20.0
# From MPC 95732
C/2014 Q6 (PANSTARRS),e,49.8042,326.5636,2.4918,4232,0.0000036,0.99900352,0.0000,01/06.2735/2015,2000,g  9.5,4.0
# From MPC 95211
C/2014 R1 (Borisov),e,9.9104,104.0249,55.7867,178.7006,0.0004126,0.99243405,0.0000,11/18.2301/2014,2000,g  6.5,8.8
# From MPC111767
C/2014 R3 (PANSTARRS),e,90.8726,334.0935,113.4652,6006,0.0000021,0.99878840,0.0000,08/08.6296/2016,2000,g  6.5,4.0
# From MPC 92982
C/2014 R4 (Gibbs),e,42.3741,279.5738,180.7485,823.9088,0.0000417,0.99779121,0.0000,10/19.8779/2014,2000,g 13.0,4.0
# From MPC 91615
P/2014 R5 (Lemmon-PANSTARRS),e,1.0882,126.5434,213.6955,4.058478,0.1205478,0.41278491,210.5372,03/29.0/2019,2000,g 15.0,4.0
# From MPC 95732
C/2014 S1 (PANSTARRS),h,10/29.8320/2013,123.7585,352.6537,288.7268,1.003141,8.127096,2000,7.0,4.0
# From MPC104790
C/2014 S2 (PANSTARRS),e,64.4262,8.0679,87.4013,174.7518,0.0004266,0.98807622,0.0000,12/09.2819/2015,2000,g 10.0,4.0
# From MPC 90770
C/2014 S3 (PANSTARRS),e,169.3276,356.1168,293.0694,85.82674,0.0012396,0.97619744,0.0000,08/12.6958/2014,2000,g 17.0,4.0
# From MPC 91615
C/2014 TG64 (Catalina),e,22.2942,50.2982,294.5418,14.79206,0.0173245,0.78191916,30.6246,03/29.0/2019,2000,g 13.0,4.0
# From MPC 92274
P/2014 U2 (Kowalski),e,7.2805,354.2439,37.6133,2.903161,0.1992496,0.61540210,320.8638,03/29.0/2019,2000,g 19.5,4.0
# From MPC 91616
C/2014 U3 (Kowalski),e,152.9392,163.5970,51.2643,955.5018,0.0000334,0.99732977,0.0000,09/04.3650/2014,2000,g 14.5,4.0
# From MPC 91616
P/2014 U4 (PANSTARRS),e,6.4377,12.0236,347.8631,3.502070,0.1503893,0.46596406,256.5811,03/29.0/2019,2000,g 18.0,4.0
# From MPC 95211
P/2014 V1 (PANSTARRS),e,22.4884,166.2242,177.5503,5.484477,0.0767364,0.53315683,117.2733,03/29.0/2019,2000,g 14.0,4.0
# From MPC 93586
P/2014 W1 (PANSTARRS),e,8.8418,246.2412,152.4484,4.457470,0.1047301,0.38922523,178.9288,03/29.0/2019,2000,g 15.5,4.0
# From MPC110493
C/2014 W2 (PANSTARRS),e,82.0267,69.9615,84.9500,696.9165,0.0000536,0.99616790,0.0000,03/09.3836/2016,2000,g  7.5,4.0
# From MPC 98561
C/2014 W3 (PANSTARRS),h,02/26.8880/2014,90.1591,286.4489,158.8921,1.005657,6.063205,2000,8.5,4.0
# From MPC105542
P/2014 W4 (PANSTARRS),e,15.2682,33.3482,68.0077,6.606183,0.0580468,0.35275811,68.6339,03/29.0/2019,2000,g 11.0,4.0
# From MPC 95211
C/2014 W6 (Catalina),h,03/18.8495/2015,53.5212,338.1781,209.9543,1.001582,3.094991,2000,10.5,4.0
# From MPC 92982
C/2014 W7 (Christensen),e,98.1804,151.2718,33.2713,11.40292,0.0255965,0.86947739,39.6296,03/29.0/2019,2000,g 16.0,4.0
# From MPC 91616
C/2014 W8 (PANSTARRS),e,41.9464,224.8465,228.0433,174.8581,0.0004263,0.97127022,0.0000,09/09.5191/2015,2000,g 11.0,4.0
# From MPC 94672
C/2014 W9 (PANSTARRS),e,10.6240,21.3143,167.9024,11.21009,0.0262597,0.85769773,39.4631,03/29.0/2019,2000,g 16.0,4.0
# From MPC107047
C/2014 W11 (PANSTARRS),e,12.7426,295.8155,225.6847,9.726549,0.0324912,0.64768524,44.8757,03/29.0/2019,2000,g 10.0,4.0
# From MPC 93587
P/2014 W12 (Gibbs),e,8.5138,299.2838,36.9258,3.517431,0.1494052,0.52366605,238.4366,03/29.0/2019,2000,g 15.0,4.0
# From MPC 94281
P/2014 X1 (Elenin),e,26.0110,61.5088,34.0768,6.216607,0.0635878,0.70895657,98.2070,03/29.0/2019,2000,g 15.0,4.0
# From MPC 96866
C/2014 XB8 (PANSTARRS),e,149.7867,37.5042,351.3473,716.4726,0.0000514,0.99580624,0.0000,04/04.8528/2015,2000,g 13.5,4.0
# From MPC100579
C/2014 Y1 (PANSTARRS),h,01/17.3627/2016,14.9247,19.4911,182.3422,1.001826,2.247339,2000,9.5,4.0
# From MPC 95733
C/2015 A1 (PANSTARRS),e,80.2634,341.0582,244.9200,20.25415,0.0108127,0.90146639,15.9666,03/29.0/2019,2000,g 14.5,4.0
# From MPC 93587
C/2015 A2 (PANSTARRS),p,08/01.8353/2015,109.1696,208.8369,5.341055,258.5042,2000,10.5,4.0
# From MPC 92275
P/2015 A3 (PANSTARRS),e,172.5282,277.1615,249.2154,7.812022,0.0451397,0.85210698,67.6050,03/29.0/2019,2000,g 20.0,4.0
# From MPC 99270
P/2015 B1 (PANSTARRS),e,18.0190,353.1690,188.6318,9.515106,0.0335802,0.37116744,43.2141,03/29.0/2019,2000,g  8.5,4.0
# From MPC108592
C/2015 B2 (PANSTARRS),h,05/06.4604/2016,105.0439,341.8917,284.7338,1.000588,3.368038,2000,9.5,4.0
# From MPC109141
P/2015 B4 (Lemmon-PANSTARRS),e,1.7602,266.0277,227.5715,8.550713,0.0394185,0.56217591,59.4560,03/29.0/2019,2000,g 11.0,4.0
# From MPC101096
P/2015 C1 (TOTAS-Gibbs),e,13.8818,348.8420,178.4385,6.593018,0.0582207,0.56062501,83.1793,03/29.0/2019,2000,g 12.5,4.0
# From MPC 95211
C/2015 C2 (SWAN),e,94.4855,49.5696,334.0051,360.4831,0.0001440,0.99803766,0.0000,03/04.1402/2015,2000,g 14.0,4.0
# From MPC 98561
C/2015 D2 (PANSTARRS),e,31.9068,162.8171,292.6049,12.83906,0.0214242,0.56001696,43.0309,03/29.0/2019,2000,g  8.0,4.0
# From MPC110080
C/2015 D3 (PANSTARRS),h,05/03.2059/2016,128.5328,157.0114,3.0016,1.003555,8.151267,2000,5.5,4.0
# From MPC 94672
C/2015 D4 (Borisov),e,77.3532,305.5524,314.7249,78.44459,0.0014186,0.98902007,0.0000,10/28.2441/2014,2000,g 12.0,4.0
# From MPC109141
P/2015 D5 (Kowalski),e,20.4932,74.0609,40.0605,8.988761,0.0365725,0.48979943,66.5291,03/29.0/2019,2000,g  9.0,4.0
# From MPC 96866
P/2015 D6 (Lemmon-PANSTARRS),e,20.2207,46.1954,125.3907,7.163006,0.0514116,0.36322400,69.8269,03/29.0/2019,2000,g 10.5,4.0
# From MPC112390
C/2015 ER61 (PANSTARRS),e,6.3496,235.2204,68.1895,426.4713,0.0001119,0.99755783,0.0000,05/10.0832/2017,2000,g 11.0,2.0
# From MPEC 2018-BF5
C/2015 E61-B (PANSTARRS),e,6.3512,235.2555,68.2788,962.5434,0.0000330,0.99891617,0.0000,05/10.0608/2017,2000,g 13.5,2.0
# From MPC109142
P/2015 F1 (PANSTARRS),e,2.8032,40.4203,187.3557,3.524240,0.1489724,0.27844851,219.5303,03/29.0/2019,2000,g 12.5,4.0
# From MPC 95733
C/2015 F2 (Polonia),e,28.7318,262.4426,352.1784,38.98063,0.0040498,0.96891829,5.7898,03/29.0/2019,2000,g 16.5,4.0
# From MPC 96279
C/2015 F3 (SWAN),e,73.4634,31.6657,57.4695,183.4690,0.0003966,0.99545244,0.0000,03/07.9452/2015,2000,g 14.5,4.0
# From MPC102952
C/2015 F4 (Jacques),e,48.7887,285.9213,36.3097,115.4393,0.0007946,0.98578940,0.0000,08/11.3049/2015,2000,g 11.0,4.0
# From MPC 95212
C/2015 F5 (SWAN-Xingming),e,149.3499,287.7507,13.4566,15.54559,0.0160803,0.97758215,0.0000,03/27.9343/2015,2000,g 15.5,4.0
# From MPC102096
C/2015 GX (PANSTARRS),e,90.2765,235.5277,108.8621,16.17393,0.0151524,0.87846408,19.8470,03/29.0/2019,2000,g 14.0,4.0
# From MPC109142
C/2015 G2 (MASTER),h,05/24.1531/2015,147.6460,110.2105,257.6444,1.000543,0.781378,2000,11.0,4.0
# From MPC 95733
C/2015 H1 (Bressi),e,140.6352,325.8707,21.8965,31.96606,0.0054534,0.93948838,7.9766,03/29.0/2019,2000,g 13.5,4.0
# From MPC112390
C/2015 H2 (PANSTARRS),h,09/13.9097/2016,33.6868,350.6980,287.9699,1.005085,4.969527,2000,7.5,4.0
# From MPC 10028
P/2015 HG16 (PANSTARRS),e,18.8851,59.3189,47.3224,4.760615,0.0948876,0.34676543,164.9684,03/29.0/2019,2000,g 12.5,4.0
# From MPC100579
C/2015 J1 (PANSTARRS),h,06/29.0570/2014,94.9949,219.9997,315.5785,1.000327,6.032872,2000,8.5,4.0
# From MPC101096
C/2015 J2 (PANSTARRS),e,17.2787,56.7334,203.8382,286.1887,0.0002036,0.98488421,0.0000,09/09.8552/2015,2000,g 10.0,4.0
# From MPC 95733
P/2015 J3 (NEOWISE),e,8.1295,111.3549,129.4056,3.350238,0.1607276,0.55460199,238.6617,03/29.0/2019,2000,g 16.5,4.0
# From MPC101096
C/2015 K1 (MASTER),e,29.3539,5.1194,280.2310,191.1148,0.0003730,0.98663512,0.0000,10/14.5287/2014,2000,g  9.0,4.0
# From MPC 95733
C/2015 K2 (PANSTARRS),e,29.1120,223.6945,15.8977,297.6619,0.0001919,0.99509846,0.0000,06/09.1100/2015,2000,g 20.0,4.0
# From MPC 95733
C/2015 K4 (PANSTARRS),h,05/01.8252/2015,80.2798,250.7118,357.6717,1.000674,2.013724,2000,15.0,4.0
# From MPC 95213
P/2015 K5 (PANSTARRS),e,39.9536,134.2185,106.1937,6.713236,0.0566639,0.55455235,78.8223,03/29.0/2019,2000,g 13.5,4.0
# From MPC111767
C/2015 LC2 (PANSTARRS),h,05/02.1246/2015,93.7135,223.5737,341.9779,1.000238,5.901071,2000,8.0,4.0
# From MPC 95734
C/2015 M1 (PANSTARRS),e,57.3257,100.1852,164.1057,427.2592,0.0001116,0.99509795,0.0000,05/15.9214/2015,2000,g 16.5,4.0
# From MPC107684
P/2015 M2 (PANSTARRS),e,3.9737,86.5768,224.9569,7.216793,0.0508379,0.18076280,66.2571,03/29.0/2019,2000,g  8.5,4.0
# From MPC102097
C/2015 M3 (PANSTARRS),e,65.8973,143.0465,123.8138,138.0149,0.0006079,0.97425030,0.0000,08/26.4281/2015,2000,g 12.0,4.0
# From MPC112390
C/2015 O1 (PANSTARRS),h,02/19.1267/2018,127.2146,299.8546,89.6111,1.000046,3.729991,2000,6.5,4.0
# From MPC 95734
C/2015 P3 (SWAN),e,58.2019,87.9871,133.0427,245.0504,0.0002569,0.99706766,0.0000,07/27.7193/2015,2000,g 15.5,4.0
# From MPC 99271
P/2015 P4 (PANSTARRS),e,8.7173,104.7593,280.6683,6.055937,0.0661351,0.58360333,77.0744,03/29.0/2019,2000,g 14.0,4.0
# From MPC102952
